[{"OBJECT_NAME":"ICEYE-X6","OBJECT_ID":"2020-068M","EPOCH":"2026-03-09T22:38:15.311328","MEAN_MOTION":15.03906063,"ECCENTRICITY":0.00090855,"INCLINATION":98.0946,"RA_OF_ASC_NODE":57.9399,"ARG_OF_PERICENTER":68.4739,"MEAN_ANOMALY":291.7454,"EPHEMERIS_TYPE":0,"CLASSIFICATION_TYPE":"U","NORAD_CAT_ID":46497,"ELEMENT_SET_NO":999,"REV_AT_EPOCH":29831,"BSTAR":0.00025875904,"MEAN_MOTION_DOT":3.502e-5,"MEAN_MOTION_DDOT":0},{"OBJECT_NAME":"STARLINK-6134","OBJECT_ID":"2023-090K","EPOCH":"2026-03-09T20:16:50.646432","MEAN_MOTION":15.02533503,"ECCENTRICITY":0.0001195,"INCLINATION":43.0039,"RA_OF_ASC_NODE":274.0734,"ARG_OF_PERICENTER":270.6748,"MEAN_ANOMALY":89.3957,"EPHEMERIS_TYPE":0,"CLASSIFICATION_TYPE":"U","NORAD_CAT_ID":57110,"ELEMENT_SET_NO":999,"REV_AT_EPOCH":15043,"BSTAR":0.00010390364,"MEAN_MOTION_DOT":1.2e-5,"MEAN_MOTION_DDOT":0}]
